[{"OBJECT_NAME":"TANAGER-1","OBJECT_ID":"2024-149AR","EPOCH":"2026-03-05T08:23:36.927744","MEAN_MOTION":15.43548696,"ECCENTRICITY":0.0006725,"INCLINATION":97.377,"RA_OF_ASC_NODE":157.6642,"ARG_OF_PERICENTER":235.9479,"MEAN_ANOMALY":124.1131,"EPHEMERIS_TYPE":0,"CLASSIFICATION_TYPE":"U","NORAD_CAT_ID":60507,"ELEMENT_SET_NO":999,"REV_AT_EPOCH":8701,"BSTAR":0.00012407,"MEAN_MOTION_DOT":5.482e-5,"MEAN_MOTION_DDOT":0},{"OBJECT_NAME":"EAGLEEYE","OBJECT_ID":"2024-149AS","EPOCH":"2026-03-06T11:51:10.390464","MEAN_MOTION":15.56205381,"ECCENTRICITY":0.00028394,"INCLINATION":97.3778,"RA_OF_ASC_NODE":154.3657,"ARG_OF_PERICENTER":262.0277,"MEAN_ANOMALY":98.0656,"EPHEMERIS_TYPE":0,"CLASSIFICATION_TYPE":"U","NORAD_CAT_ID":60508,"ELEMENT_SET_NO":999,"REV_AT_EPOCH":8689,"BSTAR":0.0009126127,"MEAN_MOTION_DOT":0.00064268,"MEAN_MOTION_DDOT":0},{"OBJECT_NAME":"FLOCK 4BE-29","OBJECT_ID":"2024-149AT","EPOCH":"2026-03-06T05:14:50.336160","MEAN_MOTION":15.40257896,"ECCENTRICITY":0.00019514,"INCLINATION":97.3848,"RA_OF_ASC_NODE":149.8126,"ARG_OF_PERICENTER":310.1031,"MEAN_ANOMALY":50.0044,"EPHEMERIS_TYPE":0,"CLASSIFICATION_TYPE":"U","NORAD_CAT_ID":60509,"ELEMENT_SET_NO":999,"REV_AT_EPOCH":8654,"BSTAR":0.00063576392,"MEAN_MOTION_DOT":0.00025551,"MEAN_MOTION_DDOT":0},{"OBJECT_NAME":"TRANSPORTER-11 OBJECT AU","OBJECT_ID":"2024-149AU","EPOCH":"2026-03-06T12:06:46.033344","MEAN_MOTION":15.37099505,"ECCENTRICITY":0.00025429,"INCLINATION":97.3773,"RA_OF_ASC_NODE":148.6233,"ARG_OF_PERICENTER":304.8485,"MEAN_ANOMALY":55.252,"EPHEMERIS_TYPE":0,"CLASSIFICATION_TYPE":"U","NORAD_CAT_ID":60510,"ELEMENT_SET_NO":999,"REV_AT_EPOCH":8652,"BSTAR":0.00051114479,"MEAN_MOTION_DOT":0.00018502,"MEAN_MOTION_DDOT":0},{"OBJECT_NAME":"FLOCK 4BE-2","OBJECT_ID":"2024-149AV","EPOCH":"2026-03-06T04:37:05.144160","MEAN_MOTION":15.42828947,"ECCENTRICITY":0.00027797,"INCLINATION":97.3854,"RA_OF_ASC_NODE":150.3506,"ARG_OF_PERICENTER":286.1155,"MEAN_ANOMALY":73.9786,"EPHEMERIS_TYPE":0,"CLASSIFICATION_TYPE":"U","NORAD_CAT_ID":60511,"ELEMENT_SET_NO":999,"REV_AT_EPOCH":8657,"BSTAR":0.0010165445,"MEAN_MOTION_DOT":0.00044659,"MEAN_MOTION_DDOT":0},{"OBJECT_NAME":"FLOCK 4BE-13","OBJECT_ID":"2024-149AW","EPOCH":"2026-03-06T04:40:19.796448","MEAN_MOTION":15.38659812,"ECCENTRICITY":0.00034237,"INCLINATION":97.3766,"RA_OF_ASC_NODE":148.7545,"ARG_OF_PERICENTER":282.3434,"MEAN_ANOMALY":77.7428,"EPHEMERIS_TYPE":0,"CLASSIFICATION_TYPE":"U","NORAD_CAT_ID":60512,"ELEMENT_SET_NO":999,"REV_AT_EPOCH":8651,"BSTAR":0.00052943675,"MEAN_MOTION_DOT":0.00020167,"MEAN_MOTION_DDOT":0},{"OBJECT_NAME":"FLOCK 4BE-27","OBJECT_ID":"2024-149AX","EPOCH":"2026-03-06T05:27:41.516640","MEAN_MOTION":15.32496893,"ECCENTRICITY":0.00028087,"INCLINATION":97.387,"RA_OF_ASC_NODE":147.1582,"ARG_OF_PERICENTER":323.4674,"MEAN_ANOMALY":36.6376,"EPHEMERIS_TYPE":0,"CLASSIFICATION_TYPE":"U","NORAD_CAT_ID":60513,"ELEMENT_SET_NO":999,"REV_AT_EPOCH":8636,"BSTAR":0.00039794829,"MEAN_MOTION_DOT":0.00012417,"MEAN_MOTION_DDOT":0},{"OBJECT_NAME":"FLOCK 4BE-9","OBJECT_ID":"2024-149AY","EPOCH":"2026-03-06T04:15:21.210912","MEAN_MOTION":15.37434715,"ECCENTRICITY":0.00015483,"INCLINATION":97.3832,"RA_OF_ASC_NODE":148.6883,"ARG_OF_PERICENTER":316.8578,"MEAN_ANOMALY":43.2545,"EPHEMERIS_TYPE":0,"CLASSIFICATION_TYPE":"U","NORAD_CAT_ID":60514,"ELEMENT_SET_NO":999,"REV_AT_EPOCH":8647,"BSTAR":0.00048724022,"MEAN_MOTION_DOT":0.00017822,"MEAN_MOTION_DDOT":0},{"OBJECT_NAME":"FLOCK 4BE-8","OBJECT_ID":"2024-149AZ","EPOCH":"2026-03-06T19:30:44.882208","MEAN_MOTION":15.76981042,"ECCENTRICITY":0.0004656,"INCLINATION":97.3657,"RA_OF_ASC_NODE":152.4259,"ARG_OF_PERICENTER":241.5671,"MEAN_ANOMALY":118.5126,"EPHEMERIS_TYPE":0,"CLASSIFICATION_TYPE":"U","NORAD_CAT_ID":60515,"ELEMENT_SET_NO":999,"REV_AT_EPOCH":8680,"BSTAR":0.0020854,"MEAN_MOTION_DOT":0.00350381,"MEAN_MOTION_DDOT":0},{"OBJECT_NAME":"FLOCK 4BE-6","OBJECT_ID":"2024-149BA","EPOCH":"2026-03-06T11:01:23.735136","MEAN_MOTION":15.36485951,"ECCENTRICITY":0.00022946,"INCLINATION":97.3836,"RA_OF_ASC_NODE":148.5017,"ARG_OF_PERICENTER":308.7518,"MEAN_ANOMALY":51.352,"EPHEMERIS_TYPE":0,"CLASSIFICATION_TYPE":"U","NORAD_CAT_ID":60516,"ELEMENT_SET_NO":999,"REV_AT_EPOCH":8648,"BSTAR":0.00047064829,"MEAN_MOTION_DOT":0.00016692,"MEAN_MOTION_DDOT":0},{"OBJECT_NAME":"FLOCK 4BE-14","OBJECT_ID":"2024-149BB","EPOCH":"2026-03-06T11:02:35.804832","MEAN_MOTION":15.37534999,"ECCENTRICITY":0.0003258,"INCLINATION":97.3747,"RA_OF_ASC_NODE":148.5733,"ARG_OF_PERICENTER":304.343,"MEAN_ANOMALY":55.7507,"EPHEMERIS_TYPE":0,"CLASSIFICATION_TYPE":"U","NORAD_CAT_ID":60517,"ELEMENT_SET_NO":999,"REV_AT_EPOCH":8652,"BSTAR":0.00052447793,"MEAN_MOTION_DOT":0.00019259,"MEAN_MOTION_DDOT":0},{"OBJECT_NAME":"FLOCK 4BE-1","OBJECT_ID":"2024-149BC","EPOCH":"2026-03-06T04:25:23.189088","MEAN_MOTION":15.38793321,"ECCENTRICITY":0.00032683,"INCLINATION":97.3824,"RA_OF_ASC_NODE":149.2306,"ARG_OF_PERICENTER":301.878,"MEAN_ANOMALY":58.2147,"EPHEMERIS_TYPE":0,"CLASSIFICATION_TYPE":"U","NORAD_CAT_ID":60518,"ELEMENT_SET_NO":999,"REV_AT_EPOCH":8651,"BSTAR":0.00052924136,"MEAN_MOTION_DOT":0.00020248,"MEAN_MOTION_DDOT":0},{"OBJECT_NAME":"FLOCK 4BE-28","OBJECT_ID":"2024-149BD","EPOCH":"2026-03-06T11:23:56.499072","MEAN_MOTION":15.40827693,"ECCENTRICITY":0.00035651,"INCLINATION":97.379,"RA_OF_ASC_NODE":149.9491,"ARG_OF_PERICENTER":300.1384,"MEAN_ANOMALY":59.9509,"EPHEMERIS_TYPE":0,"CLASSIFICATION_TYPE":"U","NORAD_CAT_ID":60519,"ELEMENT_SET_NO":999,"REV_AT_EPOCH":8660,"BSTAR":0.00061418053,"MEAN_MOTION_DOT":0.00025151,"MEAN_MOTION_DDOT":0},{"OBJECT_NAME":"IPERDRONE.0","OBJECT_ID":"2024-149BE","EPOCH":"2026-03-06T05:44:13.551072","MEAN_MOTION":15.54245674,"ECCENTRICITY":0.00028754,"INCLINATION":97.382,"RA_OF_ASC_NODE":154.3885,"ARG_OF_PERICENTER":246.2157,"MEAN_ANOMALY":113.8795,"EPHEMERIS_TYPE":0,"CLASSIFICATION_TYPE":"U","NORAD_CAT_ID":60520,"ELEMENT_SET_NO":999,"REV_AT_EPOCH":8686,"BSTAR":0.00079946098,"MEAN_MOTION_DOT":0.00052314,"MEAN_MOTION_DDOT":0},{"OBJECT_NAME":"TRANSPORTER-11 OBJECT BF","OBJECT_ID":"2024-149BF","EPOCH":"2026-03-06T05:50:55.670496","MEAN_MOTION":15.59370463,"ECCENTRICITY":0.00031867,"INCLINATION":97.3828,"RA_OF_ASC_NODE":155.5789,"ARG_OF_PERICENTER":247.2234,"MEAN_ANOMALY":112.8686,"EPHEMERIS_TYPE":0,"CLASSIFICATION_TYPE":"U","NORAD_CAT_ID":60521,"ELEMENT_SET_NO":999,"REV_AT_EPOCH":8693,"BSTAR":0.00094249433,"MEAN_MOTION_DOT":0.00074799,"MEAN_MOTION_DDOT":0},{"OBJECT_NAME":"CONNECTA IOT-2","OBJECT_ID":"2024-149BG","EPOCH":"2026-03-06T04:38:38.944320","MEAN_MOTION":15.22969176,"ECCENTRICITY":0.00056126,"INCLINATION":97.3896,"RA_OF_ASC_NODE":144.951,"ARG_OF_PERICENTER":340.132,"MEAN_ANOMALY":19.9697,"EPHEMERIS_TYPE":0,"CLASSIFICATION_TYPE":"U","NORAD_CAT_ID":60522,"ELEMENT_SET_NO":999,"REV_AT_EPOCH":8621,"BSTAR":0.00025444178,"MEAN_MOTION_DOT":5.91e-5,"MEAN_MOTION_DDOT":0}]
